NORAD_CAT_ID,OBJECT_NAME,OBJECT_TYPE,EPOCH,MEAN_MOTION,ECCENTRICITY,INCLINATION,RA_OF_ASC_NODE,ARG_OF_PERICENTER,MEAN_ANOMALY,BSTAR,MEAN_MOTION_DOT,MEAN_MOTION_DDOT,TLE_LINE0,TLE_LINE1,TLE_LINE2,SEMIMAJOR_AXIS,PERIOD,APOGEE,PERIGEE,DECAYED
53708.0,STARLINK-4694,PAYLOAD,2023-04-28 12:08:56,15.10485955,7.39e-05,53.2152,245.8039,80.2223,279.8854,0.00013629,1.978e-05,0.0,0 STARLINK-4694,1 53708U 22107J   23118.50621117  .00001978  00000-0  13629-3 0  9992,2 53708  53.2152 245.8039 0000739  80.2223 279.8854 15.10485955 36375,6912.854,95.334,535.23,534.208,0.0
53708.0,STARLINK-4694,PAYLOAD,2023-04-28 16:54:46,15.10495754,7.9e-05,53.2157,244.911,81.7884,278.3198,0.00022924,3.528e-05,0.0,0 STARLINK-4694,1 53708U 22107J   23118.70470970  .00003528  00000-0  22924-3 0  9994,2 53708  53.2157 244.9110 0000790  81.7884 278.3198 15.10495754 36403,6912.824,95.333,535.235,534.143,0.0
53708.0,STARLINK-4694,PAYLOAD,2023-04-29 13:33:27,15.10483289,9.67e-05,53.2151,241.0402,75.4641,284.6459,-6.307e-06,-3.97e-06,0.0,0 STARLINK-4694,1 53708U 22107J   23119.56489687 -.00000397  00000-0 -63070-5 0  9996,2 53708  53.2151 241.0402 0000967  75.4641 284.6459 15.10483289 37283,6912.862,95.334,535.396,534.059,0.0
53708.0,STARLINK-4694,PAYLOAD,2023-04-29 18:19:17,15.10490874,0.0001153,53.2151,240.1464,86.4877,273.6248,9.8547e-05,1.349e-05,0.0,0 STARLINK-4694,1 53708U 22107J   23119.76339945  .00001349  00000-0  98547-4 0  9991,2 53708  53.2151 240.1464 0001153  86.4877 273.6248 15.10490874 36564,6912.839,95.333,535.501,533.907,0.0
53708.0,STARLINK-4694,PAYLOAD,2023-04-30 13:22:40,15.10481813,9.8e-05,53.2151,236.5727,97.6011,262.5093,0.00012627,1.811e-05,0.0,0 STARLINK-4694,1 53708U 22107J   23120.55741806  .00001811  00000-0  12627-3 0  9991,2 53708  53.2151 236.5727 0000980  97.6011 262.5093 15.10481813 37431,6912.867,95.334,535.409,534.054,0.0
53708.0,STARLINK-4694,PAYLOAD,2023-04-30 14:57:57,15.10484471,9.36e-05,53.2157,236.2759,94.5474,265.5625,0.00018564,2.8e-05,0.0,0 STARLINK-4694,1 53708U 22107J   23120.62358566  .00002800  00000-0  18564-3 0  9991,2 53708  53.2157 236.2759 0000936  94.5474 265.5625 15.10484471 36693,6912.858,95.334,535.371,534.076,0.0
53708.0,STARLINK-4694,PAYLOAD,2023-05-01 13:11:55,15.10474745,0.0001025,53.2158,232.1064,110.3613,249.749,4.7497e-05,4.98e-06,0.0,0 STARLINK-4694,1 53708U 22107J   23121.54994411  .00000498  00000-0  47497-4 0  9997,2 53708  53.2158 232.1064 0001025 110.3613 249.7490 15.10474745 37586,6912.888,95.334,535.462,534.045,0.0
53708.0,STARLINK-4694,PAYLOAD,2023-05-01 14:47:12,15.10476812,9.93e-05,53.2155,231.8085,103.5837,256.5267,8.9143e-05,1.192e-05,0.0,0 STARLINK-4694,1 53708U 22107J   23121.61611245  .00001192  00000-0  89143-4 0  9992,2 53708  53.2155 231.8085 0000993 103.5837 256.5267 15.10476812 36840,6912.882,95.334,535.433,534.06,0.0
53708.0,STARLINK-4694,PAYLOAD,2023-05-01 16:22:28,15.10478897,9.67e-05,53.2156,231.5102,99.9672,260.143,0.00012305,1.757e-05,0.0,0 STARLINK-4694,1 53708U 22107J   23121.68228007  .00001757  00000-0  12305-3 0  9991,2 53708  53.2156 231.5102 0000967  99.9672 260.1430 15.10478897 37607,6912.875,95.334,535.409,534.072,0.0
53708.0,STARLINK-4694,PAYLOAD,2023-05-02 13:01:08,15.10495307,9.41e-05,53.2156,227.6393,95.8973,264.2127,0.0006339,0.00010281,0.0,0 STARLINK-4694,1 53708U 22107J   23122.54246139  .00010281  00000-0  63390-3 0  9995,2 53708  53.2156 227.6393 0000941  95.8973 264.2127 15.10495307 36989,6912.825,95.333,535.341,534.04,0.0
53708.0,STARLINK-4694,PAYLOAD,2023-05-02 16:11:42,15.10504358,0.0001008,53.2155,227.0436,87.8535,272.2574,0.0009006,0.00014743,0.0,0 STARLINK-4694,1 53708U 22107J   23122.67479537  .00014743  00000-0  90060-3 0  9990,2 53708  53.2155 227.0436 0001008  87.8535 272.2574 15.10504358 37758,6912.798,95.332,535.36,533.966,0.0
53708.0,STARLINK-4694,PAYLOAD,2023-05-03 00:08:06,15.10486262,8.5e-05,53.2158,225.5546,116.286,243.822,4.8372e-05,5.13e-06,0.0,0 STARLINK-4694,1 53708U 22107J   23123.00563629  .00000513  00000-0  48372-4 0  9994,2 53708  53.2158 225.5546 0000850 116.2860 243.8220 15.10486262 37056,6912.853,95.334,535.306,534.13,0.0
53708.0,STARLINK-4694,PAYLOAD,2023-05-03 12:50:22,15.10471361,0.0001282,53.2153,223.1726,98.2864,261.8274,-8.4206e-05,-1.694e-05,0.0,0 STARLINK-4694,1 53708U 22107J   23123.53498742 -.00001694  00000-0 -84206-4 0  9994,2 53708  53.2153 223.1726 0001282  98.2864 261.8274 15.10471361 37130,6912.898,95.334,535.65,533.877,0.0
53708.0,STARLINK-4694,PAYLOAD,2023-05-03 16:00:56,15.10474147,0.0001034,53.2146,222.5765,103.4301,256.6807,-1.3703e-05,-5.21e-06,0.0,0 STARLINK-4694,1 53708U 22107J   23123.66732445 -.00000521  00000-0 -13703-4 0  9991,2 53708  53.2146 222.5765 0001034 103.4301 256.6807 15.10474147 37902,6912.89,95.334,535.47,534.04,0.0
53708.0,STARLINK-4694,PAYLOAD,2023-05-04 12:39:36,15.10484102,8.35e-05,53.2146,218.7059,95.6301,264.4787,0.00019046,2.88e-05,0.0,0 STARLINK-4694,1 53708U 22107J   23124.52750872  .00002880  00000-0  19046-3 0  9994,2 53708  53.2146 218.7059 0000835  95.6301 264.4787 15.10484102 37282,6912.86,95.334,535.302,534.147,0.0
53708.0,STARLINK-4694,PAYLOAD,2023-05-04 15:50:10,15.10488434,9.88e-05,53.2147,218.1095,102.1927,257.9177,0.00030083,4.721e-05,0.0,0 STARLINK-4694,1 53708U 22107J   23124.65984377  .00004721  00000-0  30083-3 0  9997,2 53708  53.2147 218.1095 0000988 102.1927 257.9177 15.10488434 38052,6912.846,95.333,535.394,534.028,0.0
53708.0,STARLINK-4694,PAYLOAD,2023-05-05 06:07:43,15.10476133,0.0001297,53.2141,215.4303,91.1574,268.9567,0.00021757,3.331e-05,0.0,0 STARLINK-4694,1 53708U 22107J   23125.25536526  .00003331  00000-0  21757-3 0  9997,2 53708  53.2141 215.4303 0001297  91.1574 268.9567 15.10476133 37391,6912.884,95.334,535.646,533.852,0.0
53708.0,STARLINK-4694,PAYLOAD,2023-05-05 15:39:25,15.1047949,0.0001149,53.2152,213.6431,98.1634,261.9489,0.00027153,4.231e-05,0.0,0 STARLINK-4694,1 53708U 22107J   23125.65237332  .00004231  00000-0  27153-3 0  9990,2 53708  53.2152 213.6431 0001149  98.1634 261.9489 15.10479490 38201,6912.874,95.334,535.533,533.944,0.0
53708.0,STARLINK-4694,PAYLOAD,2023-05-06 05:56:57,15.10473952,0.0001231,53.215,210.9614,103.959,256.154,0.00017511,2.624e-05,0.0,0 STARLINK-4694,1 53708U 22107J   23126.24789052  .00002624  00000-0  17511-3 0  9998,2 53708  53.2150 210.9614 0001231 103.9590 256.1540 15.10473952 37547,6912.891,95.334,535.607,533.905,0.0
53708.0,STARLINK-4694,PAYLOAD,2023-05-06 12:18:05,15.104852,0.00011,53.2151,209.7705,102.1064,258.0052,0.0002876,4.5e-05,0.0,0 STARLINK-4694,1 53708U 22107J   23126.51256033  .00004500  00000-0  28760-3 0  9999,2 53708  53.2151 209.7705 0001100 102.1064 258.0052 15.10485200 38333,6912.856,95.334,535.482,533.961,0.0
53708.0,STARLINK-4694,PAYLOAD,2023-05-07 12:07:19,15.10477448,0.0001085,53.2149,205.3047,99.1623,260.9493,0.00012031,1.711e-05,0.0,0 STARLINK-4694,1 53708U 22107J   23127.50508779  .00001711  00000-0  12031-3 0  9991,2 53708  53.2149 205.3047 0001085  99.1623 260.9493 15.10477448 37738,6912.88,95.334,535.495,533.995,0.0
53708.0,STARLINK-4694,PAYLOAD,2023-05-07 21:39:00,15.10482472,0.0001016,53.2145,203.5193,95.0411,265.0698,0.00014868,2.184e-05,0.0,0 STARLINK-4694,1 53708U 22107J   23127.90209340  .00002184  00000-0  14868-3 0  9992,2 53708  53.2145 203.5193 0001016  95.0411 265.0698 15.10482472 38546,6912.865,95.334,535.432,534.027,0.0
53708.0,STARLINK-4694,PAYLOAD,2023-05-08 11:56:33,15.10486639,0.0001136,53.2142,200.8396,100.1472,259.9649,1.278e-05,-8e-07,0.0,0 STARLINK-4694,1 53708U 22107J   23128.49760450 -.00000080  00000-0  12780-4 0  9997,2 53708  53.2142 200.8396 0001136 100.1472 259.9649 15.10486639 38633,6912.852,95.334,535.502,533.932,0.0
53708.0,STARLINK-4694,PAYLOAD,2023-05-09 10:10:30,15.10480308,0.0001175,53.2146,196.6707,100.4484,259.6642,0.0001082,1.509e-05,0.0,0 STARLINK-4694,1 53708U 22107J   23129.42396037  .00001509  00000-0  10820-3 0  9995,2 53708  53.2146 196.6707 0001175 100.4484 259.6642 15.10480308 38776,6912.871,95.334,535.548,533.924,0.0
53708.0,STARLINK-4694,PAYLOAD,2023-05-10 11:35:01,15.10475252,0.0001197,53.2153,191.9074,95.1161,264.9968,-3.3181e-05,-8.45e-06,0.0,0 STARLINK-4694,1 53708U 22107J   23130.48265327 -.00000845  00000-0 -33181-4 0  9990,2 53708  53.2153 191.9074 0001197  95.1161 264.9968 15.10475252 38935,6912.887,95.334,535.579,533.924,0.0
53708.0,STARLINK-4694,PAYLOAD,2023-05-10 21:06:42,15.1047832,0.000118,53.2152,190.1198,90.3184,269.7944,4.5827e-05,4.7e-06,0.0,0 STARLINK-4694,1 53708U 22107J   23130.87966120  .00000470  00000-0  45827-4 0  9994,2 53708  53.2152 190.1198 0001180  90.3184 269.7944 15.10478320 38998,6912.877,95.334,535.558,533.927,0.0
53708.0,STARLINK-4694,PAYLOAD,2023-05-11 09:48:57,15.10500742,0.0001092,53.2151,187.7372,83.6823,276.4295,-0.00042487,-7.363e-05,0.0,0 STARLINK-4694,1 53708U 22107J   23131.40899658 -.00007363  00000-0 -42487-3 0  9993,2 53708  53.2151 187.7372 0001092  83.6823 276.4295 15.10500742 39078,6912.809,95.333,535.429,533.919,0.0
53708.0,STARLINK-4694,PAYLOAD,2023-05-11 11:24:14,15.10499912,0.0001179,53.2155,187.4395,90.4223,269.6905,-0.00033108,-5.803e-05,0.0,0 STARLINK-4694,1 53708U 22107J   23131.47516465 -.00005803  00000-0 -33108-3 0  9999,2 53708  53.2155 187.4395 0001179  90.4223 269.6905 15.10499912 38336,6912.811,95.333,535.491,533.861,0.0
53708.0,STARLINK-4694,PAYLOAD,2023-05-11 20:55:57,15.10473978,0.0001257,53.2151,185.6526,97.73,262.3835,0.00035025,5.543e-05,0.0,0 STARLINK-4694,1 53708U 22107J   23131.87218846  .00005543  00000-0  35025-3 0  9994,2 53708  53.2151 185.6526 0001257  97.7300 262.3835 15.10473978 38393,6912.89,95.334,535.624,533.887,0.0
53708.0,STARLINK-4694,PAYLOAD,2023-05-11 22:31:13,15.104782,0.0001266,53.215,185.3551,83.0778,277.0358,0.00021876,3.351e-05,0.0,0 STARLINK-4694,1 53708U 22107J   23131.93835383  .00003351  00000-0  21876-3 0  9996,2 53708  53.2150 185.3551 0001266  83.0778 277.0358 15.10478200 39155,6912.878,95.334,535.618,533.867,0.0
